CCSDS_OMM_VERS = 2.0
CREATION_DATE  = 
ORIGINATOR     = 

OBJECT_NAME    = SL-16 R/B
OBJECT_ID      = 1998-043G
CENTER_NAME    = EARTH
REF_FRAME      = TEME
TIME_SYSTEM    = UTC
MEAN_ELEMENT_THEORY = SGP/SGP4

EPOCH          = 2026-02-07T06:44:05.237088
MEAN_MOTION    = 14.26042449
ECCENTRICITY   = .0010896
INCLINATION    = 98.8205
RA_OF_ASC_NODE = 351.4386
ARG_OF_PERICENTER = 101.4411
MEAN_ANOMALY   = 258.7993

EPHEMERIS_TYPE = 0
CLASSIFICATION_TYPE = U
NORAD_CAT_ID   = 25400
ELEMENT_SET_NO = 999
REV_AT_EPOCH   = 43465
BSTAR          = .69125886E-4
MEAN_MOTION_DOT = .12E-5
MEAN_MOTION_DDOT = 0

CCSDS_OMM_VERS = 2.0
CREATION_DATE  = 
ORIGINATOR     = 

OBJECT_NAME    = SL-16 R/B
OBJECT_ID      = 1998-045B
CENTER_NAME    = EARTH
REF_FRAME      = TEME
TIME_SYSTEM    = UTC
MEAN_ELEMENT_THEORY = SGP/SGP4

EPOCH          = 2026-02-06T23:44:11.947488
MEAN_MOTION    = 14.16185255
ECCENTRICITY   = .00052981
INCLINATION    = 71.0084
RA_OF_ASC_NODE = 246.1368
ARG_OF_PERICENTER = 65.3371
MEAN_ANOMALY   = 294.8304

EPHEMERIS_TYPE = 0
CLASSIFICATION_TYPE = U
NORAD_CAT_ID   = 25407
ELEMENT_SET_NO = 999
REV_AT_EPOCH   = 42275
BSTAR          = -.2861316E-4
MEAN_MOTION_DOT = -.104E-5
MEAN_MOTION_DDOT = 0

CCSDS_OMM_VERS = 2.0
CREATION_DATE  = 
ORIGINATOR     = 

OBJECT_NAME    = ISS (ZARYA)
OBJECT_ID      = 1998-067A
CENTER_NAME    = EARTH
REF_FRAME      = TEME
TIME_SYSTEM    = UTC
MEAN_ELEMENT_THEORY = SGP/SGP4

EPOCH          = 2026-02-06T23:40:36.733728
MEAN_MOTION    = 15.48450046
ECCENTRICITY   = .00111427
INCLINATION    = 51.6315
RA_OF_ASC_NODE = 224.1327
ARG_OF_PERICENTER = 71.6186
MEAN_ANOMALY   = 288.6013

EPHEMERIS_TYPE = 0
CLASSIFICATION_TYPE = U
NORAD_CAT_ID   = 25544
ELEMENT_SET_NO = 999
REV_AT_EPOCH   = 55157
BSTAR          = .22893974E-3
MEAN_MOTION_DOT = .11965E-3
MEAN_MOTION_DDOT = 0

CCSDS_OMM_VERS = 2.0
CREATION_DATE  = 
ORIGINATOR     = 

OBJECT_NAME    = CZ-4B R/B
OBJECT_ID      = 1999-025C
CENTER_NAME    = EARTH
REF_FRAME      = TEME
TIME_SYSTEM    = UTC
MEAN_ELEMENT_THEORY = SGP/SGP4

EPOCH          = 2026-02-07T02:37:56.055648
MEAN_MOTION    = 14.18259191
ECCENTRICITY   = .00381239
INCLINATION    = 98.6688
RA_OF_ASC_NODE = 83.1071
ARG_OF_PERICENTER = 73.5070
MEAN_ANOMALY   = 305.5811

EPHEMERIS_TYPE = 0
CLASSIFICATION_TYPE = U
NORAD_CAT_ID   = 25732
ELEMENT_SET_NO = 999
REV_AT_EPOCH   = 38383
BSTAR          = .52419539E-4
MEAN_MOTION_DOT = .66E-6
MEAN_MOTION_DDOT = 0

CCSDS_OMM_VERS = 2.0
CREATION_DATE  = 
ORIGINATOR     = 

OBJECT_NAME    = OKEAN-O
OBJECT_ID      = 1999-039A
CENTER_NAME    = EARTH
REF_FRAME      = TEME
TIME_SYSTEM    = UTC
MEAN_ELEMENT_THEORY = SGP/SGP4

EPOCH          = 2026-02-07T04:00:13.623840
MEAN_MOTION    = 14.80285300
ECCENTRICITY   = .000189
INCLINATION    = 97.9510
RA_OF_ASC_NODE = 98.3582
ARG_OF_PERICENTER = 88.0837
MEAN_ANOMALY   = 272.0592

EPHEMERIS_TYPE = 0
CLASSIFICATION_TYPE = U
NORAD_CAT_ID   = 25860
ELEMENT_SET_NO = 999
REV_AT_EPOCH   = 42987
BSTAR          = .14129481E-3
MEAN_MOTION_DOT = .1024E-4
MEAN_MOTION_DDOT = 0

CCSDS_OMM_VERS = 2.0
CREATION_DATE  = 
ORIGINATOR     = 

OBJECT_NAME    = SL-16 R/B
OBJECT_ID      = 1999-039B
CENTER_NAME    = EARTH
REF_FRAME      = TEME
TIME_SYSTEM    = UTC
MEAN_ELEMENT_THEORY = SGP/SGP4

EPOCH          = 2026-02-07T04:12:47.368800
MEAN_MOTION    = 14.81688141
ECCENTRICITY   = .00147582
INCLINATION    = 98.0032
RA_OF_ASC_NODE = 97.3070
ARG_OF_PERICENTER = 1.9945
MEAN_ANOMALY   = 358.1324

EPHEMERIS_TYPE = 0
CLASSIFICATION_TYPE = U
NORAD_CAT_ID   = 25861
ELEMENT_SET_NO = 999
REV_AT_EPOCH   = 43234
BSTAR          = .10904754E-3
MEAN_MOTION_DOT = .806E-5
MEAN_MOTION_DDOT = 0

CCSDS_OMM_VERS = 2.0
CREATION_DATE  = 
ORIGINATOR     = 

OBJECT_NAME    = DELTA 2 R/B
OBJECT_ID      = 1999-041E
CENTER_NAME    = EARTH
REF_FRAME      = TEME
TIME_SYSTEM    = UTC
MEAN_ELEMENT_THEORY = SGP/SGP4

EPOCH          = 2026-02-07T05:06:31.750272
MEAN_MOTION    = 14.11713995
ECCENTRICITY   = .05023358
INCLINATION    = 51.7647
RA_OF_ASC_NODE = 62.9842
ARG_OF_PERICENTER = 258.3892
MEAN_ANOMALY   = 96.0263

EPHEMERIS_TYPE = 0
CLASSIFICATION_TYPE = U
NORAD_CAT_ID   = 25876
ELEMENT_SET_NO = 999
REV_AT_EPOCH   = 35872
BSTAR          = .45311105E-3
MEAN_MOTION_DOT = .2584E-4
MEAN_MOTION_DDOT = 0

CCSDS_OMM_VERS = 2.0
CREATION_DATE  = 
ORIGINATOR     = 

OBJECT_NAME    = HELIOS 1B
OBJECT_ID      = 1999-064A
CENTER_NAME    = EARTH
REF_FRAME      = TEME
TIME_SYSTEM    = UTC
MEAN_ELEMENT_THEORY = SGP/SGP4

EPOCH          = 2026-02-07T07:28:31.948896
MEAN_MOTION    = 14.87571823
ECCENTRICITY   = .00020103
INCLINATION    = 98.1724
RA_OF_ASC_NODE = 299.6583
ARG_OF_PERICENTER = 117.6313
MEAN_ANOMALY   = 242.5107

EPHEMERIS_TYPE = 0
CLASSIFICATION_TYPE = U
NORAD_CAT_ID   = 25977
ELEMENT_SET_NO = 999
REV_AT_EPOCH   = 68074
BSTAR          = .27915202E-3
MEAN_MOTION_DOT = .2477E-4
MEAN_MOTION_DDOT = 0

CCSDS_OMM_VERS = 2.0
CREATION_DATE  = 
ORIGINATOR     = 

OBJECT_NAME    = TERRA
OBJECT_ID      = 1999-068A
CENTER_NAME    = EARTH
REF_FRAME      = TEME
TIME_SYSTEM    = UTC
MEAN_ELEMENT_THEORY = SGP/SGP4

EPOCH          = 2026-02-07T05:46:22.810656
MEAN_MOTION    = 14.60981450
ECCENTRICITY   = .00009436
INCLINATION    = 97.9658
RA_OF_ASC_NODE = 92.8284
ARG_OF_PERICENTER = 283.6041
MEAN_ANOMALY   = 148.8653

EPHEMERIS_TYPE = 0
CLASSIFICATION_TYPE = U
NORAD_CAT_ID   = 25994
ELEMENT_SET_NO = 999
REV_AT_EPOCH   = 39063
BSTAR          = .14007081E-3
MEAN_MOTION_DOT = .642E-5
MEAN_MOTION_DDOT = 0

CCSDS_OMM_VERS = 2.0
CREATION_DATE  = 
ORIGINATOR     = 

OBJECT_NAME    = SL-16 R/B
OBJECT_ID      = 2000-006B
CENTER_NAME    = EARTH
REF_FRAME      = TEME
TIME_SYSTEM    = UTC
MEAN_ELEMENT_THEORY = SGP/SGP4

EPOCH          = 2026-02-06T18:49:39.853920
MEAN_MOTION    = 14.15820725
ECCENTRICITY   = .00184341
INCLINATION    = 71.0029
RA_OF_ASC_NODE = 162.8182
ARG_OF_PERICENTER = 233.6478
MEAN_ANOMALY   = 126.2944

EPHEMERIS_TYPE = 0
CLASSIFICATION_TYPE = U
NORAD_CAT_ID   = 26070
ELEMENT_SET_NO = 999
REV_AT_EPOCH   = 34418
BSTAR          = .20931892E-4
MEAN_MOTION_DOT = -.7E-7
MEAN_MOTION_DDOT = 0

CCSDS_OMM_VERS = 2.0
CREATION_DATE  = 
ORIGINATOR     = 

OBJECT_NAME    = TITAN 4B R/B
OBJECT_ID      = 2000-047B
CENTER_NAME    = EARTH
REF_FRAME      = TEME
TIME_SYSTEM    = UTC
MEAN_ELEMENT_THEORY = SGP/SGP4

EPOCH          = 2026-02-07T06:45:03.018816
MEAN_MOTION    = 15.09310193
ECCENTRICITY   = .00370186
INCLINATION    = 67.9892
RA_OF_ASC_NODE = 126.0014
ARG_OF_PERICENTER = 72.7940
MEAN_ANOMALY   = 287.7256

EPHEMERIS_TYPE = 0
CLASSIFICATION_TYPE = U
NORAD_CAT_ID   = 26474
ELEMENT_SET_NO = 999
REV_AT_EPOCH   = 38832
BSTAR          = .30454474E-3
MEAN_MOTION_DOT = .4812E-4
MEAN_MOTION_DDOT = 0

CCSDS_OMM_VERS = 2.0
CREATION_DATE  = 
ORIGINATOR     = 

OBJECT_NAME    = ENVISAT
OBJECT_ID      = 2002-009A
CENTER_NAME    = EARTH
REF_FRAME      = TEME
TIME_SYSTEM    = UTC
MEAN_ELEMENT_THEORY = SGP/SGP4

EPOCH          = 2026-02-07T07:23:39.522912
MEAN_MOTION    = 14.39025487
ECCENTRICITY   = .00012836
INCLINATION    = 98.3679
RA_OF_ASC_NODE = 352.6390
ARG_OF_PERICENTER = 91.2246
MEAN_ANOMALY   = 31.0287

EPHEMERIS_TYPE = 0
CLASSIFICATION_TYPE = U
NORAD_CAT_ID   = 27386
ELEMENT_SET_NO = 999
REV_AT_EPOCH   = 25480
BSTAR          = .80708862E-4
MEAN_MOTION_DOT = .206E-5
MEAN_MOTION_DDOT = 0

