SL-16 R/B               
1 25400U 98043G   26038.28061617  .00000120  00000+0  69126-4 0  9995
2 25400  98.8205 351.4386 0010896 101.4411 258.7993 14.26042449434652
SL-16 R/B               
1 25407U 98045B   26037.98902717 -.00000104  00000+0 -28613-4 0  9995
2 25407  71.0084 246.1368 0005298  65.3371 294.8304 14.16185255422757
ISS (ZARYA)             
1 25544U 98067A   26037.98653627  .00011965  00000+0  22894-3 0  9993
2 25544  51.6315 224.1327 0011142  71.6186 288.6013 15.48450046551570
CZ-4B R/B               
1 25732U 99025C   26038.10967657  .00000066  00000+0  52420-4 0  9992
2 25732  98.6688  83.1071 0038123  73.5070 305.5811 14.18259191383834
OKEAN-O                 
1 25860U 99039A   26038.16682435  .00001024  00000+0  14129-3 0  9991
2 25860  97.9510  98.3582 0001890  88.0837 272.0592 14.80285300429879
SL-16 R/B               
1 25861U 99039B   26038.17554825  .00000806  00000+0  10905-3 0  9999
2 25861  98.0032  97.3070 0014758   1.9945 358.1324 14.81688141432349
DELTA 2 R/B             
1 25876U 99041E   26038.21286748  .00002584  00000+0  45311-3 0  9993
2 25876  51.7647  62.9842 0502335 258.3892  96.0263 14.11713995358728
HELIOS 1B               
1 25977U 99064A   26038.31148089  .00002477  00000+0  27915-3 0  9997
2 25977  98.1724 299.6583 0002010 117.6313 242.5107 14.87571823680742
TERRA                   
1 25994U 99068A   26038.24054179  .00000642  00000+0  14007-3 0  9998
2 25994  97.9658  92.8284 0000943 283.6041 148.8653 14.60981450390632
SL-16 R/B               
1 26070U 00006B   26037.78448905 -.00000007  00000+0  20932-4 0  9991
2 26070  71.0029 162.8182 0018434 233.6478 126.2944 14.15820725344180
TITAN 4B R/B            
1 26474U 00047B   26038.28128494  .00004812  00000+0  30454-3 0  9994
2 26474  67.9892 126.0014 0037018  72.7940 287.7256 15.09310193388321
ENVISAT                 
1 27386U 02009A   26038.30809633  .00000206  00000+0  80709-4 0  9993
2 27386  98.3679 352.6390 0001283  91.2246  31.0287 14.39025487254809
